STARLINK-36765          
1 68962U 26099M   26132.83335648 -.00023907  00000+0 -11785-3 0  9998
2 68962  53.1592 331.6540 0000900  76.0521 297.7217 15.80884897  3039
