{
  "norad_id": 68962,
  "name": "STARLINK-36765",
  "history": [
    {
      "epoch": "2026-05-12T20:00:01.999008Z",
      "apogee_km": 328.5405400157988,
      "perigee_km": 327.33344669699545,
      "latitude_deg": 10.965485749847577,
      "longitude_deg": 169.34279366539786,
      "height_km": 327.81234497575014,
      "semi_major_axis_km": 6706.073993356397,
      "eccentricity": 9e-05,
      "inclination_deg": 53.1592,
      "raan_deg": 331.654,
      "arg_perigee_deg": 76.0521,
      "mean_anomaly_deg": 297.7217,
      "mean_motion_rev_day": 15.80884897
    }
  ]
}